[{"OBJECT_NAME":"UM5-RIBAT","OBJECT_ID":"2024-149CQ","EPOCH":"2026-03-09T19:05:41.327808","MEAN_MOTION":15.00468196,"ECCENTRICITY":0.00032721,"INCLINATION":97.6776,"RA_OF_ASC_NODE":147.9138,"ARG_OF_PERICENTER":87.0399,"MEAN_ANOMALY":273.1199,"EPHEMERIS_TYPE":0,"CLASSIFICATION_TYPE":"U","NORAD_CAT_ID":60554,"ELEMENT_SET_NO":999,"REV_AT_EPOCH":8528,"BSTAR":0.00037992942,"MEAN_MOTION_DOT":4.725e-5,"MEAN_MOTION_DDOT":0},{"OBJECT_NAME":"STARLINK-35858","OBJECT_ID":"2025-280N","EPOCH":"2026-03-09T22:27:13.590144","MEAN_MOTION":14.98346887,"ECCENTRICITY":0.0002778,"INCLINATION":70.0021,"RA_OF_ASC_NODE":333.7979,"ARG_OF_PERICENTER":267.7652,"MEAN_ANOMALY":92.3189,"EPHEMERIS_TYPE":0,"CLASSIFICATION_TYPE":"U","NORAD_CAT_ID":66833,"ELEMENT_SET_NO":999,"REV_AT_EPOCH":1611,"BSTAR":0.00077500561,"MEAN_MOTION_DOT":9.17e-5,"MEAN_MOTION_DDOT":0}]
